{"type": "FeatureCollection", "name": "RU-CITY-069", "crs": {"type": "name", "properties": {"name": "urn:ogc:def:crs:OGC:1.3:CRS84"}}, "features": [{"type": "Feature", "geometry": {"type": "MultiPolygon", "coordinates": [[[[44.641463, 43.084494], [44.651173, 43.078577], [44.651727, 43.077722], [44.657437, 43.068913], [44.658549, 43.065395], [44.658529, 43.065173], [44.658734, 43.064738], [44.658719, 43.06443], [44.658113, 43.064307], [44.658106, 43.063915], [44.65426, 43.063249], [44.654267, 43.063058], [44.652712, 43.062907], [44.652464, 43.062801], [44.652543, 43.062446], [44.646741, 43.062344], [44.646418, 43.062338], [44.646417, 43.062602], [44.646326, 43.062599], [44.646341, 43.06282], [44.644666, 43.062922], [44.639042, 43.065692], [44.638172, 43.065505], [44.636724, 43.065514], [44.636248, 43.065711], [44.631344, 43.064464], [44.62778, 43.065943], [44.608193, 43.055136], [44.606359, 43.056051], [44.604336, 43.054785], [44.607005, 43.053449], [44.606643, 43.053234], [44.612057, 43.050937], [44.612159, 43.050382], [44.607256, 43.047248], [44.618214, 43.042393], [44.619151, 43.040144], [44.617817, 43.039234], [44.621925, 43.036372], [44.619776, 43.034493], [44.618579, 43.035204], [44.615108, 43.0324], [44.619673, 43.030937], [44.620729, 43.03326], [44.622876, 43.035556], [44.62401, 43.03493], [44.624549, 43.033807], [44.626778, 43.032772], [44.628785, 43.033273], [44.627805, 43.029676], [44.62397, 43.014865], [44.635604, 43.008838], [44.639811, 43.003806], [44.663525, 42.996271], [44.665832, 42.989951], [44.662478, 42.988863], [44.664903, 42.986332], [44.668306, 42.986809], [44.675099, 42.98868], [44.674912, 42.983577], [44.682374, 42.984088], [44.684756, 42.98425], [44.685023, 42.981269], [44.683686, 42.977103], [44.683403, 42.974206], [44.687663, 42.970404], [44.689762, 42.97053], [44.692068, 42.976885], [44.694665, 42.983005], [44.699734, 43.00527], [44.702801, 43.009227], [44.71032, 43.008104], [44.715803, 43.017995], [44.718264, 43.030401], [44.720925, 43.032337], [44.727252, 43.033604], [44.725907, 43.043901], [44.736328, 43.046303], [44.740321, 43.047224], [44.740558, 43.050922], [44.74085, 43.05175], [44.741242, 43.052497], [44.74187, 43.056064], [44.739152, 43.05539], [44.738872, 43.05466], [44.737228, 43.054272], [44.728987, 43.052326], [44.727514, 43.052172], [44.723601, 43.052238], [44.723503, 43.05224], [44.722418, 43.053157], [44.720968, 43.055484], [44.70998, 43.062054], [44.694804, 43.075635], [44.694028, 43.078106], [44.691206, 43.083365], [44.681163, 43.085872], [44.669626, 43.085023], [44.66938, 43.084995], [44.661494, 43.085677], [44.660574, 43.085952], [44.657357, 43.086042], [44.651966, 43.086168], [44.649769, 43.08621], [44.644688, 43.086783], [44.641463, 43.084494]]], [[[44.687472, 42.970318], [44.687302, 42.969246], [44.687257, 42.968784], [44.686847, 42.967967], [44.686788, 42.967695], [44.686782, 42.967429], [44.68623, 42.966154], [44.685792, 42.965019], [44.686917, 42.964218], [44.689127, 42.963589], [44.690412, 42.965313], [44.69112, 42.965627], [44.69157, 42.966459], [44.692174, 42.96808], [44.692232, 42.96906], [44.689357, 42.970487], [44.687472, 42.970318]]]]}, "properties": {"name": "\u0412\u043b\u0430\u0434\u0438\u043a\u0430\u0432\u043a\u0430\u0437", "name:az": "Vladiqafqaz", "name:bg": "\u0412\u043b\u0430\u0434\u0438\u043a\u0430\u0432\u043a\u0430\u0437", "name:ca": "Vladikavkaz", "name:ce": "\u0411\u0443\u0440\u0438\u0442\u04c0\u0435", "name:da": "Vladikavkaz", "name:de": "Wladikawkas", "name:el": "\u0392\u03bb\u03b1\u03bd\u03c4\u03b9\u03ba\u03b1\u03b2\u03ba\u03ac\u03b6", "name:en": "Vladikavkaz", "name:eo": "Vladikavkaz", "name:es": "Vladic\u00e1ucaso", "name:eu": "Vladikavkaz", "name:fi": "Vladikavkaz", "name:fr": "Vladikavkaz", "name:hr": "Vladikavkaz", "name:hsb": "Wladikawkaz", "name:hy": "\u054e\u056c\u0561\u0564\u056b\u056f\u0561\u057e\u056f\u0561\u0566", "name:ka": "\u10d5\u10da\u10d0\u10d3\u10d8\u10d9\u10d0\u10d5\u10d9\u10d0\u10d6\u10d8", "name:kbd": "\u0422\u044d\u0440\u0447\u043a\u044a\u0430\u043b\u044d", "name:ko": "\ube14\ub77c\ub514\uce85\uce74\uc2a4", "name:mhr": "\u0412\u043b\u0430\u0434\u0438\u043a\u0430\u0432\u043a\u0430\u0437", "name:ml": "\u0d35\u0d4d\u0d32\u0d3e\u0d21\u0d3f\u0d15\u0d3e\u0d35\u0d4d\u0d15\u0d3e\u0d38\u0d4d", "name:nl": "Vladikavkaz", "name:os": "\u0414\u0437\u00e6\u0443\u0434\u0436\u044b\u0445\u044a\u00e6\u0443", "name:pl": "W\u0142adykaukaz", "name:pt": "Vladikavkaz", "name:ro": "Vladikavkaz", "name:ru": "\u0412\u043b\u0430\u0434\u0438\u043a\u0430\u0432\u043a\u0430\u0437", "name:sr": "\u0412\u043b\u0430\u0434\u0438\u043a\u0430\u0432\u043a\u0430\u0437", "name:sv": "Vladikavkaz", "name:tr": "Vladikavkaz", "name:zh": "\u5f17\u62c9\u5b63\u9ad8\u52a0\u7d22", "place": "city", "population": "301543", "population:date": "2021-01-01", "type": "multipolygon", "wikidata": "Q5239", "wikipedia": "ru:\u0412\u043b\u0430\u0434\u0438\u043a\u0430\u0432\u043a\u0430\u0437"}}]}